NORAD_CAT_ID,OBJECT_NAME,OBJECT_TYPE,EPOCH,MEAN_MOTION,ECCENTRICITY,INCLINATION,RA_OF_ASC_NODE,ARG_OF_PERICENTER,MEAN_ANOMALY,BSTAR,MEAN_MOTION_DOT,MEAN_MOTION_DDOT,TLE_LINE0,TLE_LINE1,TLE_LINE2,SEMIMAJOR_AXIS,PERIOD,APOGEE,PERIGEE,DECAYED
52355.0,STARLINK-3877,PAYLOAD,2023-10-11 18:08:23,15.08826038,0.0001865,53.2171,189.2962,109.8603,250.259,0.00058442,9.022e-05,0.0,0 STARLINK-3877,1 52355U 22045AA  23284.75582388  .00009022  00000-0  58442-3 0  9997,2 52355  53.2171 189.2962 0001865 109.8603 250.2590 15.08826038 82942,6917.923,95.438,541.078,538.498,0.0
52355.0,STARLINK-3877,PAYLOAD,2023-10-12 10:02:14,15.08847598,0.0001366,53.2167,186.3258,91.1584,268.9565,0.00083673,0.00013056,0.0,0 STARLINK-3877,1 52355U 22045AA  23285.41822378  .00013056  00000-0  83673-3 0  9993,2 52355  53.2167 186.3258 0001366  91.1584 268.9565 15.08847598 83044,6917.857,95.437,540.667,538.777,0.0
52355.0,STARLINK-3877,PAYLOAD,2023-10-12 22:45:19,15.08848387,0.0001479,53.2176,183.9482,94.1734,265.9427,0.00053543,8.246e-05,0.0,0 STARLINK-3877,1 52355U 22045AA  23285.94814328  .00008246  00000-0  53543-3 0  9995,2 52355  53.2176 183.9482 0001479  94.1734 265.9427 15.08848387 83121,6917.855,95.437,540.743,538.697,0.0
52355.0,STARLINK-3877,PAYLOAD,2023-10-13 00:20:42,15.08853929,0.0001383,53.2179,183.6535,96.761,263.3539,0.00053234,8.198e-05,0.0,0 STARLINK-3877,1 52355U 22045AA  23286.01438185  .00008198  00000-0  53234-3 0  9990,2 52355  53.2179 183.6535 0001383  96.7610 263.3539 15.08853929 83130,6917.838,95.437,540.66,538.746,0.0
52355.0,STARLINK-3877,PAYLOAD,2023-10-13 09:53:01,15.0884708,0.0001358,53.2169,181.8653,83.8776,276.237,0.00032732,4.926e-05,0.0,0 STARLINK-3877,1 52355U 22045AA  23286.41182172  .00004926  00000-0  32732-3 0  9991,2 52355  53.2169 181.8653 0001358  83.8776 276.2370 15.08847080 83195,6917.859,95.437,540.663,538.784,0.0
52355.0,STARLINK-3877,PAYLOAD,2023-10-13 21:00:43,15.08848393,0.0001341,53.2168,179.7856,92.9511,267.1634,0.00024829,3.667e-05,0.0,0 STARLINK-3877,1 52355U 22045AA  23286.87550012  .00003667  00000-0  24829-3 0  9992,2 52355  53.2168 179.7856 0001341  92.9511 267.1634 15.08848393 83263,6917.855,95.437,540.647,538.792,0.0
52355.0,STARLINK-3877,PAYLOAD,2023-10-14 09:43:47,15.08850733,0.0001504,53.217,177.4053,88.4295,271.6869,0.00017971,2.574e-05,0.0,0 STARLINK-3877,1 52355U 22045AA  23287.40541498  .00002574  00000-0  17971-3 0  9996,2 52355  53.2170 177.4053 0001504  88.4295 271.6869 15.08850733 83340,6917.848,95.437,540.753,538.672,0.0
52355.0,STARLINK-3877,PAYLOAD,2023-10-14 20:51:30,15.08828136,0.0001793,53.2163,175.3245,86.6075,273.5123,-0.00020585,-3.562e-05,0.0,0 STARLINK-3877,1 52355U 22045AA  23287.86910630 -.00003562  00000-0 -20585-3 0  9999,2 52355  53.2163 175.3245 0001793  86.6075 273.5123 15.08828136 83412,6917.917,95.438,541.022,538.541,0.0
52355.0,STARLINK-3877,PAYLOAD,2023-10-14 22:26:53,15.08828709,0.0001485,53.2163,175.0276,89.0483,271.0679,-0.00025717,-4.377e-05,0.0,0 STARLINK-3877,1 52355U 22045AA  23287.93534537 -.00004377  00000-0 -25717-3 0  9992,2 52355  53.2163 175.0276 0001485  89.0483 271.0679 15.08828709 83427,6917.915,95.438,540.807,538.753,0.0
52355.0,STARLINK-3877,PAYLOAD,2023-10-15 09:34:35,15.08835446,0.0001562,53.2161,172.9456,85.3754,274.7416,0.00011385,1.524e-05,0.0,0 STARLINK-3877,1 52355U 22045AA  23288.39902638  .00001524  00000-0  11385-3 0  9999,2 52355  53.2161 172.9456 0001562  85.3754 274.7416 15.08835446 83499,6917.894,95.438,540.84,538.679,0.0
52355.0,STARLINK-3877,PAYLOAD,2023-10-15 15:56:08,15.08838509,0.0001533,53.2158,171.7563,82.5511,277.5655,0.00022633,3.316e-05,0.0,0 STARLINK-3877,1 52355U 22045AA  23288.66398716  .00003316  00000-0  22633-3 0  9994,2 52355  53.2158 171.7563 0001533  82.5511 277.5655 15.08838509 83533,6917.885,95.438,540.81,538.689,0.0
52355.0,STARLINK-3877,PAYLOAD,2023-10-16 01:28:27,15.08851237,0.0001535,53.2154,169.9723,81.1554,278.9612,0.00092405,0.00014453,0.0,0 STARLINK-3877,1 52355U 22045AA  23289.06142748  .00014453  00000-0  92405-3 0  9999,2 52355  53.2154 169.9723 0001535  81.1554 278.9612 15.08851237 83597,6917.846,95.437,540.773,538.649,0.0
52355.0,STARLINK-3877,PAYLOAD,2023-10-16 09:25:22,15.08844876,0.0001438,53.2151,168.4845,86.2093,273.9064,0.00034688,5.238e-05,0.0,0 STARLINK-3877,1 52355U 22045AA  23289.39262667  .00005238  00000-0  34688-3 0  9998,2 52355  53.2151 168.4845 0001438  86.2093 273.9064 15.08844876 83642,6917.865,95.437,540.725,538.736,0.0
52355.0,STARLINK-3877,PAYLOAD,2023-10-17 09:16:09,15.08845348,0.0001307,53.2151,164.0209,94.7957,265.3184,0.00016085,2.273e-05,0.0,0 STARLINK-3877,1 52355U 22045AA  23290.38622330  .00002273  00000-0  16085-3 0  9993,2 52355  53.2151 164.0209 0001307  94.7957 265.3184 15.08845348 83795,6917.864,95.437,540.633,538.825,0.0
52355.0,STARLINK-3877,PAYLOAD,2023-10-18 01:10:01,15.08844707,0.0001721,53.2164,161.0487,85.5647,274.5541,9.6265e-05,1.245e-05,0.0,0 STARLINK-3877,1 52355U 22045AA  23291.04862452  .00001245  00000-0  96265-4 0  9995,2 52355  53.2164 161.0487 0001721  85.5647 274.5541 15.08844707 83896,6917.866,95.437,540.922,538.54,0.0
52355.0,STARLINK-3877,PAYLOAD,2023-10-18 09:06:57,15.08842499,0.0002231,53.2164,159.5611,93.989,266.1357,7.3845e-05,8.87e-06,0.0,0 STARLINK-3877,1 52355U 22045AA  23291.37982668  .00000887  00000-0  73845-4 0  9993,2 52355  53.2164 159.5611 0002231  93.9890 266.1357 15.08842499 83941,6917.873,95.437,541.281,538.194,0.0
52355.0,STARLINK-3877,PAYLOAD,2023-10-18 18:39:18,15.08758986,0.000432,53.2152,157.777,82.7289,277.4194,-0.001948,-0.00031096,0.0,0 STARLINK-3877,1 52355U 22045AA  23291.77729973 -.00031096  00000-0 -19480-2 0  9996,2 52355  53.2152 157.7770 0004320  82.7289 277.4194 15.08758986 84002,6918.128,95.443,542.982,537.004,0.0
52355.0,STARLINK-3877,PAYLOAD,2023-10-18 21:50:02,15.08836986,0.0003347,53.2148,157.1824,85.1258,275.0116,-0.00028431,-4.811e-05,0.0,0 STARLINK-3877,1 52355U 22045AA  23291.90974953 -.00004811  00000-0 -28431-3 0  9993,2 52355  53.2148 157.1824 0003347  85.1258 275.0116 15.08836986 84029,6917.89,95.438,542.07,537.439,0.0
52355.0,STARLINK-3877,PAYLOAD,2023-10-19 21:40:48,15.08867225,0.0002886,53.2155,152.7216,87.2635,272.8687,0.00031469,4.727e-05,0.0,0 STARLINK-3877,1 52355U 22045AA  23292.90333545  .00004727  00000-0  31469-3 0  9999,2 52355  53.2155 152.7216 0002886  87.2635 272.8687 15.08867225 84176,6917.797,95.436,541.659,537.666,0.0
52355.0,STARLINK-3877,PAYLOAD,2023-10-20 15:10:03,15.08837449,8.52e-05,53.2172,149.4537,65.9113,294.1969,-2.3611e-05,-6.63e-06,0.0,0 STARLINK-3877,1 52355U 22045AA  23293.63198374 -.00000663  00000-0 -23611-4 0  9997,2 52355  53.2172 149.4537 0000852  65.9113 294.1969 15.08837449 84286,6917.888,95.438,540.343,539.164,0.0
52355.0,STARLINK-3877,PAYLOAD,2023-10-20 21:31:36,15.08836565,0.0001128,53.2149,148.2646,85.8121,274.3,4.925e-05,4.96e-06,0.0,0 STARLINK-3877,1 52355U 22045AA  23293.89694701  .00000496  00000-0  49250-4 0  9999,2 52355  53.2149 148.2646 0001128  85.8121 274.3000 15.08836565 84324,6917.891,95.438,540.536,538.976,0.0
52355.0,STARLINK-3877,PAYLOAD,2023-10-21 07:03:55,15.08839504,0.000111,53.2149,146.4794,89.2973,270.8147,0.00011224,1.499e-05,0.0,0 STARLINK-3877,1 52355U 22045AA  23294.29438678  .00001499  00000-0  11224-3 0  9996,2 52355  53.2149 146.4794 0001110  89.2973 270.8147 15.08839504 84387,6917.882,95.438,540.515,538.979,0.0
52355.0,STARLINK-3877,PAYLOAD,2023-10-21 21:22:23,15.08846083,0.0001201,53.2149,143.803,97.2129,262.8999,0.00023569,3.466e-05,0.0,0 STARLINK-3877,1 52355U 22045AA  23294.89054423  .00003466  00000-0  23569-3 0  9995,2 52355  53.2149 143.8030 0001201  97.2129 262.8999 15.08846083 84470,6917.862,95.437,540.558,538.896,0.0
52355.0,STARLINK-3877,PAYLOAD,2023-10-22 06:54:41,15.0884369,9.48e-05,53.2148,142.0183,71.3265,288.783,0.00017688,2.529e-05,0.0,0 STARLINK-3877,1 52355U 22045AA  23295.28798561  .00002529  00000-0  17688-3 0  9991,2 52355  53.2148 142.0183 0000948  71.3265 288.7830 15.08843690 84539,6917.869,95.437,540.39,539.078,0.0
52355.0,STARLINK-3877,PAYLOAD,2023-10-22 19:37:47,15.08828729,0.0001729,53.2187,139.6381,87.7587,272.3603,-3.9668e-05,-9.19e-06,0.0,0 STARLINK-3877,1 52355U 22045AA  23295.81791598 -.00000919  00000-0 -39668-4 0  9999,2 52355  53.2187 139.6381 0001729  87.7587 272.3603 15.08828729 84612,6917.915,95.438,540.976,538.584,0.0
52355.0,STARLINK-3877,PAYLOAD,2023-10-22 21:13:10,15.0882948,0.0001287,53.2151,139.3422,85.4011,274.7128,-2.4253e-05,-6.74e-06,0.0,0 STARLINK-3877,1 52355U 22045AA  23295.88415506 -.00000674  00000-0 -24253-4 0  9990,2 52355  53.2151 139.3422 0001287  85.4011 274.7128 15.08829480 84626,6917.913,95.438,540.668,538.887,0.0
52355.0,STARLINK-3877,PAYLOAD,2023-10-23 21:03:58,15.08845088,0.0001247,53.215,134.8819,83.41,276.7034,0.00069957,0.00010865,0.0,0 STARLINK-3877,1 52355U 22045AA  23296.87775652  .00010865  00000-0  69957-3 0  9991,2 52355  53.2150 134.8819 0001247  83.4100 276.7034 15.08845088 84774,6917.865,95.437,540.592,538.867,0.0
52355.0,STARLINK-3877,PAYLOAD,2023-10-24 12:57:49,15.08849502,0.0001277,53.2149,131.9082,82.4918,277.6219,0.00044182,6.752e-05,0.0,0 STARLINK-3877,1 52355U 22045AA  23297.54015408  .00006752  00000-0  44182-3 0  9995,2 52355  53.2149 131.9082 0001277  82.4918 277.6219 15.08849502 84872,6917.851,95.437,540.6,538.833,0.0
52355.0,STARLINK-3877,PAYLOAD,2023-10-25 20:45:31,15.08848233,0.0001264,53.2153,125.9599,84.8476,275.266,0.00012492,1.701e-05,0.0,0 STARLINK-3877,1 52355U 22045AA  23298.86494838  .00001701  00000-0  12492-3 0  9997,2 52355  53.2153 125.9599 0001264  84.8476 275.2660 15.08848233 85071,6917.855,95.437,540.595,538.846,0.0
52355.0,STARLINK-3877,PAYLOAD,2023-10-26 12:39:23,15.08837633,0.0001258,53.2162,122.9861,86.6553,273.4583,7.5191e-06,-1.68e-06,0.0,0 STARLINK-3877,1 52355U 22045AA  23299.52735482 -.00000168  00000-0  75191-5 0  9998,2 52355  53.2162 122.9861 0001258  86.6553 273.4583 15.08837633 85176,6917.888,95.438,540.623,538.882,0.0
